[{"OBJECT_NAME":"FENGYUN 1C DEB","OBJECT_ID":"1999-025AVY","EPOCH":"2026-03-14T00:02:16.751328","MEAN_MOTION":14.49643961,"ECCENTRICITY":0.0033663,"INCLINATION":99.0428,"RA_OF_ASC_NODE":358.2983,"ARG_OF_PERICENTER":248.6617,"MEAN_ANOMALY":111.0981,"EPHEMERIS_TYPE":0,"CLASSIFICATION_TYPE":"U","NORAD_CAT_ID":30838,"ELEMENT_SET_NO":999,"REV_AT_EPOCH":98635,"BSTAR":0.0020704077,"MEAN_MOTION_DOT":7.972e-5,"MEAN_MOTION_DDOT":0},{"OBJECT_NAME":"FENGYUN 1C DEB","OBJECT_ID":"1999-025AWA","EPOCH":"2026-03-14T11:27:35.939520","MEAN_MOTION":14.61997475,"ECCENTRICITY":0.02163007,"INCLINATION":98.0217,"RA_OF_ASC_NODE":87.1656,"ARG_OF_PERICENTER":81.8676,"MEAN_ANOMALY":280.7,"EPHEMERIS_TYPE":0,"CLASSIFICATION_TYPE":"U","NORAD_CAT_ID":30840,"ELEMENT_SET_NO":999,"REV_AT_EPOCH":74471,"BSTAR":0.00076765222,"MEAN_MOTION_DOT":5.334e-5,"MEAN_MOTION_DDOT":0},{"OBJECT_NAME":"FENGYUN 1C DEB","OBJECT_ID":"1999-025AWD","EPOCH":"2026-03-14T11:01:25.627296","MEAN_MOTION":14.52643578,"ECCENTRICITY":0.01474624,"INCLINATION":98.8276,"RA_OF_ASC_NODE":154.9447,"ARG_OF_PERICENTER":201.7042,"MEAN_ANOMALY":157.7862,"EPHEMERIS_TYPE":0,"CLASSIFICATION_TYPE":"U","NORAD_CAT_ID":30843,"ELEMENT_SET_NO":999,"REV_AT_EPOCH":622,"BSTAR":0.0002256125,"MEAN_MOTION_DOT":1.007e-5,"MEAN_MOTION_DDOT":0},{"OBJECT_NAME":"FENGYUN 1C DEB","OBJECT_ID":"1999-025AWF","EPOCH":"2026-03-14T05:14:24.255456","MEAN_MOTION":13.76937147,"ECCENTRICITY":0.01934648,"INCLINATION":98.3861,"RA_OF_ASC_NODE":68.0321,"ARG_OF_PERICENTER":23.0645,"MEAN_ANOMALY":37.2565,"EPHEMERIS_TYPE":0,"CLASSIFICATION_TYPE":"U","NORAD_CAT_ID":30845,"ELEMENT_SET_NO":999,"REV_AT_EPOCH":95502,"BSTAR":0.0005198067,"MEAN_MOTION_DOT":5.52e-6,"MEAN_MOTION_DDOT":0},{"OBJECT_NAME":"FENGYUN 1C DEB","OBJECT_ID":"1999-025AWG","EPOCH":"2026-03-14T11:47:33.327744","MEAN_MOTION":14.42162654,"ECCENTRICITY":0.00539997,"INCLINATION":99.3279,"RA_OF_ASC_NODE":260.0981,"ARG_OF_PERICENTER":67.7875,"MEAN_ANOMALY":319.9639,"EPHEMERIS_TYPE":0,"CLASSIFICATION_TYPE":"U","NORAD_CAT_ID":30846,"ELEMENT_SET_NO":999,"REV_AT_EPOCH":99252,"BSTAR":0.00080005084,"MEAN_MOTION_DOT":2.628e-5,"MEAN_MOTION_DDOT":0},{"OBJECT_NAME":"FENGYUN 1C DEB","OBJECT_ID":"1999-025AWH","EPOCH":"2026-03-14T10:23:45.812832","MEAN_MOTION":14.1784576,"ECCENTRICITY":0.00638911,"INCLINATION":98.7364,"RA_OF_ASC_NODE":237.031,"ARG_OF_PERICENTER":68.1035,"MEAN_ANOMALY":319.7054,"EPHEMERIS_TYPE":0,"CLASSIFICATION_TYPE":"U","NORAD_CAT_ID":30847,"ELEMENT_SET_NO":999,"REV_AT_EPOCH":97354,"BSTAR":0.0015200225,"MEAN_MOTION_DOT":3.125e-5,"MEAN_MOTION_DDOT":0},{"OBJECT_NAME":"FENGYUN 1C DEB","OBJECT_ID":"1999-025AWJ","EPOCH":"2026-03-13T12:09:46.695744","MEAN_MOTION":14.35177026,"ECCENTRICITY":0.00434409,"INCLINATION":99.0609,"RA_OF_ASC_NODE":276.7816,"ARG_OF_PERICENTER":70.3831,"MEAN_ANOMALY":290.2034,"EPHEMERIS_TYPE":0,"CLASSIFICATION_TYPE":"U","NORAD_CAT_ID":30848,"ELEMENT_SET_NO":999,"REV_AT_EPOCH":98608,"BSTAR":0.0010936269,"MEAN_MOTION_DOT":3.112e-5,"MEAN_MOTION_DDOT":0},{"OBJECT_NAME":"FENGYUN 1C DEB","OBJECT_ID":"1999-025AWK","EPOCH":"2026-03-14T16:03:43.574112","MEAN_MOTION":14.19452305,"ECCENTRICITY":0.00506051,"INCLINATION":99.0368,"RA_OF_ASC_NODE":140.5378,"ARG_OF_PERICENTER":105.9474,"MEAN_ANOMALY":45.2388,"EPHEMERIS_TYPE":0,"CLASSIFICATION_TYPE":"U","NORAD_CAT_ID":30849,"ELEMENT_SET_NO":999,"REV_AT_EPOCH":97676,"BSTAR":0.0014299837,"MEAN_MOTION_DOT":3.004e-5,"MEAN_MOTION_DDOT":0},{"OBJECT_NAME":"FENGYUN 1C DEB","OBJECT_ID":"1999-025AWL","EPOCH":"2026-03-14T14:43:59.113632","MEAN_MOTION":14.17076706,"ECCENTRICITY":0.01097151,"INCLINATION":98.3952,"RA_OF_ASC_NODE":298.9793,"ARG_OF_PERICENTER":292.5487,"MEAN_ANOMALY":123.6127,"EPHEMERIS_TYPE":0,"CLASSIFICATION_TYPE":"U","NORAD_CAT_ID":30850,"ELEMENT_SET_NO":999,"REV_AT_EPOCH":97099,"BSTAR":0.0020173279,"MEAN_MOTION_DOT":4.267e-5,"MEAN_MOTION_DDOT":0},{"OBJECT_NAME":"FENGYUN 1C DEB","OBJECT_ID":"1999-025AWN","EPOCH":"2026-03-14T12:27:59.339520","MEAN_MOTION":14.10467503,"ECCENTRICITY":0.00557841,"INCLINATION":98.7288,"RA_OF_ASC_NODE":93.624,"ARG_OF_PERICENTER":336.1222,"MEAN_ANOMALY":23.7363,"EPHEMERIS_TYPE":0,"CLASSIFICATION_TYPE":"U","NORAD_CAT_ID":30852,"ELEMENT_SET_NO":999,"REV_AT_EPOCH":97676,"BSTAR":0.0005371282,"MEAN_MOTION_DOT":9.27e-6,"MEAN_MOTION_DDOT":0},{"OBJECT_NAME":"FENGYUN 1C DEB","OBJECT_ID":"1999-025AWS","EPOCH":"2026-03-14T11:05:00.377088","MEAN_MOTION":14.49574536,"ECCENTRICITY":0.00825213,"INCLINATION":98.2082,"RA_OF_ASC_NODE":260.5606,"ARG_OF_PERICENTER":316.6811,"MEAN_ANOMALY":72.5603,"EPHEMERIS_TYPE":0,"CLASSIFICATION_TYPE":"U","NORAD_CAT_ID":30856,"ELEMENT_SET_NO":999,"REV_AT_EPOCH":97853,"BSTAR":0.0037858154,"MEAN_MOTION_DOT":0.00015159,"MEAN_MOTION_DDOT":0},{"OBJECT_NAME":"FENGYUN 1C DEB","OBJECT_ID":"1999-025AWT","EPOCH":"2026-03-13T22:45:41.891328","MEAN_MOTION":14.55166283,"ECCENTRICITY":0.00400465,"INCLINATION":98.9743,"RA_OF_ASC_NODE":74.104,"ARG_OF_PERICENTER":22.5068,"MEAN_ANOMALY":337.7873,"EPHEMERIS_TYPE":0,"CLASSIFICATION_TYPE":"U","NORAD_CAT_ID":30857,"ELEMENT_SET_NO":999,"REV_AT_EPOCH":98048,"BSTAR":0.0043296397,"MEAN_MOTION_DOT":0.00018911,"MEAN_MOTION_DDOT":0},{"OBJECT_NAME":"FENGYUN 1C DEB","OBJECT_ID":"1999-025AWU","EPOCH":"2026-03-14T09:59:03.391872","MEAN_MOTION":14.17941948,"ECCENTRICITY":0.00299799,"INCLINATION":98.7835,"RA_OF_ASC_NODE":135.1347,"ARG_OF_PERICENTER":204.5839,"MEAN_ANOMALY":283.8302,"EPHEMERIS_TYPE":0,"CLASSIFICATION_TYPE":"U","NORAD_CAT_ID":30858,"ELEMENT_SET_NO":999,"REV_AT_EPOCH":98279,"BSTAR":0.00036637935,"MEAN_MOTION_DOT":7.09e-6,"MEAN_MOTION_DDOT":0},{"OBJECT_NAME":"FENGYUN 1C DEB","OBJECT_ID":"1999-025AWV","EPOCH":"2026-03-14T14:43:09.510528","MEAN_MOTION":14.51261148,"ECCENTRICITY":0.00333461,"INCLINATION":98.9175,"RA_OF_ASC_NODE":134.1071,"ARG_OF_PERICENTER":118.8912,"MEAN_ANOMALY":241.5633,"EPHEMERIS_TYPE":0,"CLASSIFICATION_TYPE":"U","NORAD_CAT_ID":30859,"ELEMENT_SET_NO":999,"REV_AT_EPOCH":98366,"BSTAR":0.0038792543,"MEAN_MOTION_DOT":0.00015522,"MEAN_MOTION_DDOT":0},{"OBJECT_NAME":"FENGYUN 1C DEB","OBJECT_ID":"1999-025AWW","EPOCH":"2026-03-13T16:19:25.726368","MEAN_MOTION":14.26155861,"ECCENTRICITY":0.00371839,"INCLINATION":98.8939,"RA_OF_ASC_NODE":152.5414,"ARG_OF_PERICENTER":282.941,"MEAN_ANOMALY":76.7618,"EPHEMERIS_TYPE":0,"CLASSIFICATION_TYPE":"U","NORAD_CAT_ID":30860,"ELEMENT_SET_NO":999,"REV_AT_EPOCH":97812,"BSTAR":0.0012557621,"MEAN_MOTION_DOT":2.982e-5,"MEAN_MOTION_DDOT":0},{"OBJECT_NAME":"FENGYUN 1C DEB","OBJECT_ID":"1999-025AWY","EPOCH":"2026-03-14T01:19:28.006464","MEAN_MOTION":14.4520626,"ECCENTRICITY":0.00504251,"INCLINATION":98.9515,"RA_OF_ASC_NODE":173.6114,"ARG_OF_PERICENTER":245.6365,"MEAN_ANOMALY":291.1591,"EPHEMERIS_TYPE":0,"CLASSIFICATION_TYPE":"U","NORAD_CAT_ID":30862,"ELEMENT_SET_NO":999,"REV_AT_EPOCH":98037,"BSTAR":0.0031315503,"MEAN_MOTION_DOT":0.00011113,"MEAN_MOTION_DDOT":0}]
