FENGYUN 1C DEB          
1 30838U 99025AVY 26073.00158277  .00007972  00000+0  20704-2 0  9994
2 30838  99.0428 358.2983 0033663 248.6617 111.0981 14.49643961986358
FENGYUN 1C DEB          
1 30840U 99025AWA 26073.47749930  .00005334  00000+0  76765-3 0  9999
2 30840  98.0217  87.1656 0216300  81.8676 280.7000 14.61997475744718
FENGYUN 1C DEB          
1 30843U 99025AWD 26073.45932439  .00001007  00000+0  22561-3 0  9996
2 30843  98.8276 154.9447 0147462 201.7042 157.7862 14.52643578  6225
FENGYUN 1C DEB          
1 30845U 99025AWF 26073.21833629  .00000552  00000+0  51981-3 0  9995
2 30845  98.3861  68.0321 0193464  23.0645  37.2565 13.76937147955021
FENGYUN 1C DEB          
1 30846U 99025AWG 26073.49135796  .00002628  00000+0  80005-3 0  9991
2 30846  99.3279 260.0981 0053999  67.7875 319.9639 14.42162654992525
FENGYUN 1C DEB          
1 30847U 99025AWH 26073.43316913  .00003125  00000+0  15200-2 0  9995
2 30847  98.7364 237.0310 0063891  68.1035 319.7054 14.17845760973547
FENGYUN 1C DEB          
1 30848U 99025AWJ 26072.50679046  .00003112  00000+0  10936-2 0  9999
2 30848  99.0609 276.7816 0043440  70.3831 290.2034 14.35177026986089
FENGYUN 1C DEB          
1 30849U 99025AWK 26073.66925433  .00003004  00000+0  14300-2 0  9991
2 30849  99.0368 140.5378 0050605 105.9474  45.2388 14.19452305976764
FENGYUN 1C DEB          
1 30850U 99025AWL 26073.61387863  .00004267  00000+0  20173-2 0  9994
2 30850  98.3952 298.9793 0109715 292.5487 123.6127 14.17076706970996
FENGYUN 1C DEB          
1 30852U 99025AWN 26073.51943680  .00000927  00000+0  53713-3 0  9996
2 30852  98.7288  93.6240 0055784 336.1222  23.7363 14.10467503976764
FENGYUN 1C DEB          
1 30856U 99025AWS 26073.46180992  .00015159  00000+0  37858-2 0  9997
2 30856  98.2082 260.5606 0082521 316.6811  72.5603 14.49574536978535
FENGYUN 1C DEB          
1 30857U 99025AWT 26072.94840152  .00018911  00000+0  43296-2 0  9993
2 30857  98.9743  74.1040 0040046  22.5068 337.7873 14.55166283980486
FENGYUN 1C DEB          
1 30858U 99025AWU 26073.41601148  .00000709  00000+0  36638-3 0  9996
2 30858  98.7835 135.1347 0029979 204.5839 283.8302 14.17941948982796
FENGYUN 1C DEB          
1 30859U 99025AWV 26073.61330452  .00015522  00000+0  38793-2 0  9998
2 30859  98.9175 134.1071 0033346 118.8912 241.5633 14.51261148983661
FENGYUN 1C DEB          
1 30860U 99025AWW 26072.68015887  .00002982  00000+0  12558-2 0  9995
2 30860  98.8939 152.5414 0037183 282.9410  76.7618 14.26155861978126
FENGYUN 1C DEB          
1 30862U 99025AWY 26073.05518526  .00011113  00000+0  31316-2 0  9996
2 30862  98.9515 173.6114 0050425 245.6365 291.1591 14.45206260980373
